ONEWEB-0589             
1 54655U 22166P   25357.27860691  .00000153  00000+0  33983-3 0  9990
2 54655  87.9222 279.0765 0002217  98.0976 262.0409 13.21827715148300
ONEWEB-0590             
1 54656U 22166Q   25357.53024590 -.00000012  00000+0 -60580-4 0  9990
2 54656  87.9223 279.0034 0001372  84.6324 275.4966 13.21826130148328
ONEWEB-0591             
1 54657U 22166R   25357.76899610 -.00000019  00000+0 -78391-4 0  9995
2 54657  87.9226 278.9790 0001715  78.2744 281.8582 13.21825362148382
ONEWEB-0592             
1 54658U 22166S   25357.54519763 -.00000039  00000+0 -12700-3 0  9993
2 54658  87.9235 278.9875 0001762  79.1366 280.9967 13.21826368148237
ONEWEB-0593             
1 54659U 22166T   25357.79531398 -.00000027  00000+0 -98020-4 0  9996
2 54659  87.9226 278.9636 0001887  76.6676 283.4668 13.21827692148379
ONEWEB-0594             
1 54660U 22166U   25357.73937755  .00000060  00000+0  11444-3 0  9998
2 54660  87.9225 278.9928 0001763  73.6192 286.5136 13.21825647148380
ONEWEB-0595             
1 54661U 22166V   25357.79203135  .00000047  00000+0  81147-4 0  9996
2 54661  87.9224 278.9551 0001600  72.2623 287.8685 13.21825325148360
ONEWEB-0596             
1 54662U 22166W   25357.53861693  .00000057  00000+0  10735-3 0  9993
2 54662  87.9227 279.0226 0001669  76.4695 283.6625 13.21825229148333
ONEWEB-0597             
1 54663U 22166X   25357.74760547  .00000088  00000+0  18066-3 0  9992
2 54663  87.9226 278.9857 0001812  79.1830 280.9508 13.21825991148361
ONEWEB-0600             
1 54664U 22166Y   25357.50240986  .00000180  00000+0  40474-3 0  9998
2 54664  87.9225 279.0255 0001896  75.8208 284.3137 13.21826417148303
ONEWEB-0601             
1 54665U 22166Z   25357.72127142  .00000081  00000+0  16427-3 0  9992
2 54665  87.9227 278.9999 0001930  83.5824 276.5530 13.21826324148529
ONEWEB-0602             
1 54666U 22166AA  25357.30740104  .00000492  00000+0  11589-2 0  9995
2 54666  87.9224 279.0865 0002022  72.7889 287.3466 13.21822621148316
ONEWEB-0603             
1 54667U 22166AB  25357.54024044  .00000691  00000+0  16401-2 0  9999
2 54667  87.9238 278.9803 0001982  78.7299 281.4058 13.21835304148276
ONEWEB-0604             
1 54668U 22166AC  25357.52874268  .00000057  00000+0  10704-3 0  9996
2 54668  87.9226 279.0012 0001750  73.9894 286.1433 13.21824898148230
ONEWEB-0605             
1 54669U 22166AD  25357.74925036  .00000026  00000+0  31232-4 0  9997
2 54669  87.9224 278.9850 0001850  95.9776 264.1569 13.21826565148331
ONEWEB-0606             
1 54670U 22166AE  25357.54354860  .00000026  00000+0  31213-4 0  9997
2 54670  87.9226 279.0373 0001604  72.3519 287.7790 13.21827426148365
ONEWEB-0607             
1 54671U 22166AF  25357.28354814  .00000195  00000+0  44029-3 0  9993
2 54671  87.9225 279.0528 0001872  77.8251 282.3093 13.21826532148305
ONEWEB-0608             
1 54672U 22166AG  25357.74431249  .00000075  00000+0  14916-3 0  9992
2 54672  87.9233 278.9496 0002024  90.8997 269.2369 13.21825167148379
ONEWEB-0610             
1 54673U 22166AH  25357.49747591  .00000038  00000+0  61499-4 0  9993
2 54673  87.9225 279.0308 0002134  91.0264 269.1114 13.21824938148245
ONEWEB-0611             
1 54674U 22166AJ  25357.79366241  .00000066  00000+0  12814-3 0  9993
2 54674  87.9226 278.9674 0001693  68.6594 291.4721 13.21828157148278
ONEWEB-0612             
1 54675U 22166AK  25357.50405432  .00000123  00000+0  26671-3 0  9999
2 54675  87.9228 279.0046 0001840  79.5368 280.5973 13.21826284148222
ONEWEB-0615             
1 54676U 22166AL  25357.86278509  .00000012  00000+0 -31967-5 0  9996
2 54676  87.9229 278.9599 0001744  76.2292 283.9036 13.21827166148281
ONEWEB-0655             
1 54677U 22166AM  25357.23254015 -.00000022  00000+0 -85035-4 0  9990
2 54677  87.9224 279.0895 0001995  75.2102 284.9253 13.21827371148195
ONEWEB-0659             
1 54678U 22166AN  25357.55177651  .00000033  00000+0  48153-4 0  9996
2 54678  87.9227 279.0260 0001672  74.3231 285.8088 13.21826920148320
ONEWEB-0685             
1 54679U 22166AP  25357.32508787  .00000072  00000+0  14381-3 0  9998
2 54679  87.9226 279.0672 0001905  87.0354 273.0998 13.21835253148185
ONEWEB-0712             
1 54680U 22166AQ  25357.27903854 -.00000116  00000+0 -33826-3 0  9994
2 54680  87.9048 263.7971 0002129  66.8025 293.3330 13.16594212148917
ONEWEB-0714             
1 54681U 22166AR  25357.33127634  .00000057  00000+0  10721-3 0  9997
2 54681  87.9227 279.0599 0001965  77.4481 282.6872 13.21824754148302
ONEWEB-0532             
1 55140U 23004A   25357.54486729  .00000030  00000+0  45319-4 0  9999
2 55140  87.9110  40.7821 0001810 114.0270 246.1052 13.17648591144453
ONEWEB-0533             
1 55141U 23004B   25357.04460231 -.00000345  00000+0 -99449-3 0  9998
2 55141  87.8931  25.6518 0001957  96.2768 263.8583 13.12443475144953
ONEWEB-0541             
1 55142U 23004C   25357.47083756  .00000704  00000+0  19493-2 0  9996
2 55142  87.8849  56.0381 0001688 102.8418 257.2898 13.11415817142913
ONEWEB-0543             
1 55143U 23004D   25357.43385178  .00000047  00000+0  85633-4 0  9997
2 55143  87.9155  10.3960 0001969  84.8910 275.2447 13.18686564146537
ONEWEB-0544             
1 55144U 23004E   25357.73076315  .00000054  00000+0  10376-3 0  9990
2 55144  87.9166  10.3280 0001601  85.2859 274.8456 13.18685328146571
ONEWEB-0560             
1 55145U 23004F   25357.95179170 -.00000021  00000+0 -87029-4 0  9994
2 55145  87.9166  10.2715 0001685  84.0340 276.0984 13.18686386146618
ONEWEB-0565             
1 55146U 23004G   25357.94519085 -.00000005  00000+0 -44499-4 0  9993
2 55146  87.9157  10.3174 0001251  94.1141 266.0134 13.18686257146601
ONEWEB-0567             
1 55147U 23004H   25357.78683773 -.00000355  00000+0 -93375-3 0  9996
2 55147  87.9173  10.3159 0001275 106.9900 253.1372 13.18687813146581
ONEWEB-0569             
1 55148U 23004J   25357.95199890 -.00000438  00000+0 -12339-2 0  9990
2 55148  87.8990 355.0353 0001452  55.6919 304.4347 13.13469331147176
ONEWEB-0570             
1 55149U 23004K   25357.77693984  .00000073  00000+0  15266-3 0  9990
2 55149  87.9162  10.3186 0001547 108.1780 251.9521 13.18685156146572
ONEWEB-0571             
1 55150U 23004L   25357.77034515  .00000064  00000+0  13040-3 0  9999
2 55150  87.9161  10.3194 0000691  58.9165 301.2035 13.18684929146587
ONEWEB-0572             
1 55151U 23004M   25357.19555961  .00000070  00000+0  14594-3 0  9991
2 55151  87.9106  40.8605 0001645 101.0127 259.1190 13.17649174144303
ONEWEB-0573             
1 55152U 23004N   25357.76374011  .00000041  00000+0  70185-4 0  9997
2 55152  87.9152  10.3252 0001012 105.0334 255.0911 13.18684798146576
ONEWEB-0588             
1 55153U 23004P   25357.98478001  .00000042  00000+0  73274-4 0  9999
2 55153  87.9166  10.2772 0001460 104.3711 255.7584 13.18686614146602
ONEWEB-0598             
1 55154U 23004Q   25357.60137291  .00000095  00000+0  23095-3 0  9995
2 55154  87.8845  56.0387 0001311  85.9278 274.1999 13.11416473142881
ONEWEB-0599             
1 55155U 23004R   25357.84017430 -.00000004  00000+0 -44617-4 0  9990
2 55155  87.9097  40.7332 0001739  91.6520 268.4811 13.17648318144398
ONEWEB-0614             
1 55156U 23004S   25357.90148540 -.00000235  00000+0 -69889-3 0  9998
2 55156  87.8845  55.9880 0001892 111.6733 248.4597 13.11417317142860
ONEWEB-0616             
1 55157U 23004T   25357.88235738  .00000097  00000+0  21643-3 0  9992
2 55157  87.9107  40.7174 0002441  76.9569 283.1835 13.17647604144618
ONEWEB-0617             
1 55158U 23004U   25357.20294707 -.00000359  00000+0 -10475-2 0  9993
2 55158  87.8847  56.1071 0001615 112.8993 247.2305 13.11417499142790
ONEWEB-0618             
1 55159U 23004V   25357.95566382  .00007882  00000+0  47106-3 0  9995
2 55159  86.9082 248.6922 0010777 215.8928 144.1588 15.10892559155782
ONEWEB-0619             
1 55160U 23004W   25357.83846615  .00000069  00000+0  14447-3 0  9996
2 55160  87.9106  40.6998 0002254 101.3878 258.7507 13.17651343144509
ONEWEB-0620             
1 55161U 23004X   25357.19784936 -.00000449  00000+0 -13041-2 0  9995
2 55161  87.8848  56.1268 0001496 105.1522 254.9772 13.11415811142769
ONEWEB-0621             
1 55162U 23004Y   25357.91166161  .00000180  00000+0  47089-3 0  9990
2 55162  87.8856  55.9568 0001936 106.4093 253.7248 13.11417570142832
ONEWEB-0622             
1 55163U 23004Z   25357.91674931  .00000153  00000+0  39602-3 0  9992
2 55163  87.8846  55.9633 0001750 127.0068 233.1221 13.11417807142825
ONEWEB-0623             
1 55164U 23004AA  25357.83342004  .00000057  00000+0  11385-3 0  9998
2 55164  87.9098  40.7496 0002234 117.2326 242.9033 13.17648075144494
ONEWEB-0624             
1 55165U 23004AB  25357.83756083  .00000299  00000+0  78890-3 0  9997
2 55165  87.8922  25.4492 0001870 104.7069 255.4267 13.12922617145060
ONEWEB-0625             
1 55166U 23004AC  25357.13986119  .00000063  00000+0  12965-3 0  9996
2 55166  87.9103  40.8822 0001960  94.0047 266.1308 13.17649829144394
ONEWEB-0626             
1 55167U 23004AD  25357.12972998  .00000040  00000+0  70010-4 0  9997
2 55167  87.9100  40.8843 0001337  90.3478 269.7807 13.17650916144392
ONEWEB-0627             
1 55168U 23004AE  25357.11793427  .00000130  00000+0  30112-3 0  9993
2 55168  87.9100  40.8870 0001940 116.0593 244.0739 13.17649059144393
ONEWEB-0628             
1 55169U 23004AF  25357.98332655  .00004005  00000+0  11097-1 0  9995
2 55169  87.8930  25.4503 0002259 109.5887 250.5486 13.12420377145053
ONEWEB-0629             
1 55170U 23004AG  25357.85281603 -.00000457  00000+0 -12116-2 0  9992
2 55170  87.9098  40.7378 0002143  97.4492 262.6883 13.17646230144495
ONEWEB-0631             
1 55171U 23004AH  25357.75053651  .00000069  00000+0  14340-3 0  9991
2 55171  87.9177  10.2725 0001271  97.5563 262.5713 13.18688151146552
